{"fetched_at":"2026-03-29T02:12:04Z","count":15717,"tles":[{"name":"KUIPER-00071","line1":"1 64818U 25151C   26087.63193347  .00004696  00000+0  64454-3 0  9990","line2":"2 64818  51.8999 219.3201 0000463  72.0522 288.0491 14.79931188 38070","category":"Other"}]}